CENTAURI-1              
1 43809U 18099BD  26196.11698659  .00002727  00000+0  14266-3 0  9999
2 43809  97.4207 247.2388 0012980 225.2643 134.7534 15.16624225416735
CENTAURI-6              
1 59451U 24066K   26196.79163837  .00002490  00000+0  18459-3 0  9994
2 59451  45.6064 105.0822 0001644 251.4220 108.6486 15.06038339124435
CENTAURI-7              
1 62708U 25009DD  26196.91968367  .00001659  00000+0  14555-3 0  9995
2 62708  97.7102 276.8314 0002682 101.2828 258.8696 14.97977128 81763
CENTAURI-8              
1 62714U 25009DK  26196.74798427  .00001508  00000+0  13294-3 0  9993
2 62714  97.7038 276.4822 0002470  77.8033 282.3466 14.97928309 81752
