{"fetched_at":"2026-07-16T06:42:50.276Z","source":"https://celestrak.org/NORAD/elements/gp.php?NAME=CENTAURI&FORMAT=JSON","constellation":"myriota","records":[{"OBJECT_NAME":"CENTAURI-1","OBJECT_ID":"2018-099BD","EPOCH":"2026-07-15T02:48:27.641376","CLASSIFICATION_TYPE":"U","MEAN_MOTION":15.16624225,"ECCENTRICITY":0.00129807,"INCLINATION":97.4207,"RA_OF_ASC_NODE":247.2388,"ARG_OF_PERICENTER":225.2643,"MEAN_ANOMALY":134.7534,"EPHEMERIS_TYPE":0,"NORAD_CAT_ID":43809,"ELEMENT_SET_NO":999,"REV_AT_EPOCH":41673,"BSTAR":0.00014266456,"MEAN_MOTION_DOT":0.00002727,"MEAN_MOTION_DDOT":0},{"OBJECT_NAME":"CENTAURI-6","OBJECT_ID":"2024-066K","EPOCH":"2026-07-15T18:59:57.555168","CLASSIFICATION_TYPE":"U","MEAN_MOTION":15.06038339,"ECCENTRICITY":0.00016443,"INCLINATION":45.6064,"RA_OF_ASC_NODE":105.0822,"ARG_OF_PERICENTER":251.422,"MEAN_ANOMALY":108.6486,"EPHEMERIS_TYPE":0,"NORAD_CAT_ID":59451,"ELEMENT_SET_NO":999,"REV_AT_EPOCH":12443,"BSTAR":0.00018458846,"MEAN_MOTION_DOT":0.0000249,"MEAN_MOTION_DDOT":0},{"OBJECT_NAME":"CENTAURI-7","OBJECT_ID":"2025-009DD","EPOCH":"2026-07-15T22:04:20.669088","CLASSIFICATION_TYPE":"U","MEAN_MOTION":14.97977128,"ECCENTRICITY":0.00026823,"INCLINATION":97.7102,"RA_OF_ASC_NODE":276.8314,"ARG_OF_PERICENTER":101.2828,"MEAN_ANOMALY":258.8696,"EPHEMERIS_TYPE":0,"NORAD_CAT_ID":62708,"ELEMENT_SET_NO":999,"REV_AT_EPOCH":8176,"BSTAR":0.00014555129,"MEAN_MOTION_DOT":0.00001659,"MEAN_MOTION_DDOT":0},{"OBJECT_NAME":"CENTAURI-8","OBJECT_ID":"2025-009DK","EPOCH":"2026-07-15T17:57:05.840928","CLASSIFICATION_TYPE":"U","MEAN_MOTION":14.97928309,"ECCENTRICITY":0.00024707,"INCLINATION":97.7038,"RA_OF_ASC_NODE":276.4822,"ARG_OF_PERICENTER":77.8033,"MEAN_ANOMALY":282.3466,"EPHEMERIS_TYPE":0,"NORAD_CAT_ID":62714,"ELEMENT_SET_NO":999,"REV_AT_EPOCH":8175,"BSTAR":0.00013294169,"MEAN_MOTION_DOT":0.00001508,"MEAN_MOTION_DDOT":0}]}
